NORAD_CAT_ID,OBJECT_NAME,OBJECT_TYPE,EPOCH,MEAN_MOTION,ECCENTRICITY,INCLINATION,RA_OF_ASC_NODE,ARG_OF_PERICENTER,MEAN_ANOMALY,BSTAR,MEAN_MOTION_DOT,MEAN_MOTION_DDOT,TLE_LINE0,TLE_LINE1,TLE_LINE2,SEMIMAJOR_AXIS,PERIOD,APOGEE,PERIGEE,DECAYED
53137.0,STARLINK-4145,PAYLOAD,2023-09-23 07:45:18,15.0884422,0.0001564,53.2164,247.0435,84.8171,275.3,0.00011209,1.497e-05,0.0,0 STARLINK-4145,1 53137U 22083F   23266.32313339  .00001497  00000-0  11209-3 0  9997,2 53137  53.2164 247.0435 0001564  84.8171 275.3000 15.08844220 65598,6917.867,95.437,540.814,538.651,0.0
53137.0,STARLINK-4145,PAYLOAD,2023-09-24 02:49:56,15.08840285,0.0001516,53.2154,243.4779,94.4637,265.6528,5.7563e-05,6.28e-06,0.0,0 STARLINK-4145,1 53137U 22083F   23267.11801527  .00000628  00000-0  57563-4 0  9995,2 53137  53.2154 243.4779 0001516  94.4637 265.6528 15.08840285 66347,6917.88,95.438,540.793,538.696,0.0
53137.0,STARLINK-4145,PAYLOAD,2023-09-24 06:00:42,15.0884416,0.0001421,53.215,242.883,91.1348,268.9807,0.00011984,1.62e-05,0.0,0 STARLINK-4145,1 53137U 22083F   23267.25049365  .00001620  00000-0  11984-3 0  9993,2 53137  53.2150 242.8830 0001421  91.1348 268.9807 15.08844160 65736,6917.868,95.437,540.716,538.75,0.0
53137.0,STARLINK-4145,PAYLOAD,2023-09-24 21:54:34,15.08841015,0.0001469,53.2149,239.909,86.7607,273.3553,0.00016944,2.41e-05,0.0,0 STARLINK-4145,1 53137U 22083F   23267.91289697  .00002410  00000-0  16944-3 0  9999,2 53137  53.2149 239.9090 0001469  86.7607 273.3553 15.08841015 65834,6917.877,95.437,540.759,538.726,0.0
53137.0,STARLINK-4145,PAYLOAD,2023-09-25 05:51:29,15.08848181,0.0001391,53.2151,238.4206,93.2407,266.8744,0.0002706,4.022e-05,0.0,0 STARLINK-4145,1 53137U 22083F   23268.24409459  .00004022  00000-0  27060-3 0  9998,2 53137  53.2151 238.4206 0001391  93.2407 266.8744 15.08848181 66511,6917.855,95.437,540.683,538.758,0.0
53137.0,STARLINK-4145,PAYLOAD,2023-09-25 10:37:39,15.08852625,0.0001389,53.2155,237.5277,92.6955,267.4196,0.00036768,5.571e-05,0.0,0 STARLINK-4145,1 53137U 22083F   23268.44281271  .00005571  00000-0  36768-3 0  9995,2 53137  53.2155 237.5277 0001389  92.6955 267.4196 15.08852625 65910,6917.842,95.437,540.668,538.746,0.0
53137.0,STARLINK-4145,PAYLOAD,2023-09-25 21:45:20,15.08850128,0.0001173,53.2147,235.4456,92.7965,267.3161,0.0003903,5.931e-05,0.0,0 STARLINK-4145,1 53137U 22083F   23268.90649304  .00005931  00000-0  39030-3 0  9996,2 53137  53.2147 235.4456 0001173  92.7965 267.3161 15.08850128 65984,6917.849,95.437,540.526,538.903,0.0
53137.0,STARLINK-4145,PAYLOAD,2023-09-26 04:06:52,15.08857535,0.0001278,53.2145,234.2587,86.1024,274.0114,0.00031297,4.699e-05,0.0,0 STARLINK-4145,1 53137U 22083F   23269.17144600  .00004699  00000-0  31297-3 0  9992,2 53137  53.2145 234.2587 0001278  86.1024 274.0114 15.08857535 66021,6917.827,95.436,540.576,538.808,0.0
53137.0,STARLINK-4145,PAYLOAD,2023-09-27 02:22:17,15.08837966,0.0001428,53.2148,230.0922,92.6556,267.46,-2.896e-05,-7.49e-06,0.0,0 STARLINK-4145,1 53137U 22083F   23270.09881477 -.00000749  00000-0 -28960-4 0  9993,2 53137  53.2148 230.0922 0001428  92.6556 267.4600 15.08837966 66796,6917.887,95.438,540.739,538.764,0.0
53137.0,STARLINK-4145,PAYLOAD,2023-09-27 07:08:27,15.08834992,0.0001406,53.2151,229.2003,90.1813,269.934,-6.8113e-05,-1.372e-05,0.0,0 STARLINK-4145,1 53137U 22083F   23270.29753645 -.00001372  00000-0 -68113-4 0  9997,2 53137  53.2151 229.2003 0001406  90.1813 269.9340 15.08834992 66193,6917.896,95.438,540.733,538.788,0.0
53137.0,STARLINK-4145,PAYLOAD,2023-09-28 02:13:05,15.08834335,0.0001383,53.2154,225.6309,97.3238,262.7911,-0.00016627,-2.933e-05,0.0,0 STARLINK-4145,1 53137U 22083F   23271.09242180 -.00002933  00000-0 -16627-3 0  9999,2 53137  53.2154 225.6309 0001383  97.3238 262.7911 15.08834335 66948,6917.898,95.438,540.719,538.806,0.0
53137.0,STARLINK-4145,PAYLOAD,2023-09-28 06:59:14,15.08834177,0.000161,53.2156,224.7386,105.4773,254.6397,-7.0484e-05,-1.409e-05,0.0,0 STARLINK-4145,1 53137U 22083F   23271.29114281 -.00001409  00000-0 -70484-4 0  9990,2 53137  53.2156 224.7386 0001610 105.4773 254.6397 15.08834177 66349,6917.898,95.438,540.877,538.649,0.0
53137.0,STARLINK-4145,PAYLOAD,2023-09-29 03:39:15,15.08841184,0.0001401,53.216,220.8735,91.0589,269.0564,0.00024723,3.649e-05,0.0,0 STARLINK-4145,1 53137U 22083F   23272.15226237  .00003649  00000-0  24723-3 0  9991,2 53137  53.2160 220.8735 0001401  91.0589 269.0564 15.08841184 67109,6917.877,95.437,540.711,538.773,0.0
53137.0,STARLINK-4145,PAYLOAD,2023-09-30 01:54:39,15.08844896,0.0001255,53.2164,216.7152,82.7952,277.3183,0.0001275,1.742e-05,0.0,0 STARLINK-4145,1 53137U 22083F   23273.07962132  .00001742  00000-0  12750-3 0  9993,2 53137  53.2164 216.7152 0001255  82.7952 277.3183 15.08844896 66615,6917.865,95.437,540.599,538.862,0.0
53137.0,STARLINK-4145,PAYLOAD,2023-09-30 13:02:21,15.08839483,0.0001222,53.2158,214.6316,98.919,261.1941,6.3586e-05,7.24e-06,0.0,0 STARLINK-4145,1 53137U 22083F   23273.54330492  .00000724  00000-0  63586-4 0  9996,2 53137  53.2158 214.6316 0001222  98.9190 261.1941 15.08839483 67311,6917.882,95.438,540.592,538.902,0.0
53137.0,STARLINK-4145,PAYLOAD,2023-10-01 12:53:08,15.08839994,0.0001484,53.2155,210.1724,90.5536,269.5626,6.0146e-05,6.69e-06,0.0,0 STARLINK-4145,1 53137U 22083F   23274.53690483  .00000669  00000-0  60146-4 0  9992,2 53137  53.2155 210.1724 0001484  90.5536 269.5626 15.08839994 66839,6917.88,95.438,540.772,538.719,0.0
53137.0,STARLINK-4145,PAYLOAD,2023-10-02 01:36:13,15.08834535,0.0001259,53.2158,207.7944,88.6419,271.4718,-5.162e-05,-1.109e-05,0.0,0 STARLINK-4145,1 53137U 22083F   23275.06682869 -.00001109  00000-0 -51620-4 0  9999,2 53137  53.2158 207.7944 0001259  88.6419 271.4718 15.08834535 67545,6917.897,95.438,540.633,538.891,0.0
53137.0,STARLINK-4145,PAYLOAD,2023-10-02 04:46:59,15.08842474,0.0001341,53.2158,207.1984,94.085,266.0295,6.7842e-05,7.92e-06,0.0,0 STARLINK-4145,1 53137U 22083F   23275.19930467  .00000792  00000-0  67842-4 0  9991,2 53137  53.2158 207.1984 0001341  94.0850 266.0295 15.08842474 67568,6917.873,95.437,540.666,538.81,0.0
53137.0,STARLINK-4145,PAYLOAD,2023-10-02 12:43:55,15.08838251,0.0001438,53.2162,205.7094,91.1436,268.9721,0.00010949,1.455e-05,0.0,0 STARLINK-4145,1 53137U 22083F   23275.53050827  .00001455  00000-0  10949-3 0  9994,2 53137  53.2162 205.7094 0001438  91.1436 268.9721 15.08838251 66982,6917.886,95.438,540.746,538.756,0.0
53137.0,STARLINK-4145,PAYLOAD,2023-10-03 12:34:43,15.08834551,0.000152,53.2147,201.2509,81.2392,278.8772,-1.0277e-05,-4.52e-06,0.0,0 STARLINK-4145,1 53137U 22083F   23276.52411111 -.00000452  00000-0 -10277-4 0  9994,2 53137  53.2147 201.2509 0001520  81.2392 278.8772 15.08834551 67133,6917.897,95.438,540.814,538.711,0.0
53137.0,STARLINK-4145,PAYLOAD,2023-10-03 18:56:16,15.08831658,0.0001567,53.2157,200.0619,81.52,278.5969,0.0001005,1.311e-05,0.0,0 STARLINK-4145,1 53137U 22083F   23276.78907616  .00001311  00000-0  10050-3 0  9993,2 53137  53.2157 200.0619 0001567  81.5200 278.5969 15.08831658 67809,6917.906,95.438,540.855,538.687,0.0
53137.0,STARLINK-4145,PAYLOAD,2023-10-04 04:28:34,15.08843387,0.0001816,53.216,198.2783,77.1675,282.952,0.00013839,1.915e-05,0.0,0 STARLINK-4145,1 53137U 22083F   23277.18651216  .00001915  00000-0  13839-3 0  9998,2 53137  53.2160 198.2783 0001816  77.1675 282.9520 15.08843387 67867,6917.87,95.437,540.991,538.479,0.0
53137.0,STARLINK-4145,PAYLOAD,2023-10-04 12:25:30,15.0884528,0.0001951,53.2161,196.7929,74.3913,285.7295,0.00019219,2.772e-05,0.0,0 STARLINK-4145,1 53137U 22083F   23277.51771227  .00002772  00000-0  19219-3 0  9990,2 53137  53.2161 196.7929 0001951  74.3913 285.7295 15.08845280 67287,6917.864,95.437,541.079,538.38,0.0
53137.0,STARLINK-4145,PAYLOAD,2023-10-05 01:08:34,15.08859524,0.0001463,53.2155,194.4105,94.6975,265.4185,0.00037118,5.627e-05,0.0,0 STARLINK-4145,1 53137U 22083F   23278.04762238  .00005627  00000-0  37118-3 0  9991,2 53137  53.2155 194.4105 0001463  94.6975 265.4185 15.08859524 67999,6917.821,95.436,540.698,538.674,0.0
53137.0,STARLINK-4145,PAYLOAD,2023-10-05 21:48:35,15.08846122,0.0001418,53.2158,190.5472,94.0512,266.0643,0.00014851,2.077e-05,0.0,0 STARLINK-4145,1 53137U 22083F   23278.90874766  .00002077  00000-0  14851-3 0  9991,2 53137  53.2158 190.5472 0001418  94.0512 266.0643 15.08846122 67498,6917.862,95.437,540.708,538.746,0.0
53137.0,STARLINK-4145,PAYLOAD,2023-10-06 00:59:21,15.08848275,0.0001257,53.2155,189.9493,80.0266,280.0868,0.00020129,2.918e-05,0.0,0 STARLINK-4145,1 53137U 22083F   23279.04122636  .00002918  00000-0  20129-3 0  9998,2 53137  53.2155 189.9493 0001257  80.0266 280.0868 15.08848275 68141,6917.855,95.437,540.59,538.851,0.0
53137.0,STARLINK-4145,PAYLOAD,2023-10-06 21:39:23,15.08833291,0.0001178,53.2163,186.0852,96.7921,263.3205,1.2638e-05,-8.7e-07,0.0,0 STARLINK-4145,1 53137U 22083F   23279.90235157 -.00000087  00000-0  12638-4 0  9999,2 53137  53.2163 186.0852 0001178  96.7921 263.3205 15.08833291 67646,6917.901,95.438,540.581,538.951,0.0
53137.0,STARLINK-4145,PAYLOAD,2023-10-07 00:50:09,15.08835621,0.0001028,53.2161,185.4926,84.546,275.565,0.00011377,1.523e-05,0.0,0 STARLINK-4145,1 53137U 22083F   23280.03483193  .00001523  00000-0  11377-3 0  9993,2 53137  53.2161 185.4926 0001028  84.5460 275.5650 15.08835621 68296,6917.894,95.438,540.47,539.048,0.0
53137.0,STARLINK-4145,PAYLOAD,2023-10-07 10:22:28,15.08836809,9.28e-05,53.216,183.7075,79.5177,280.592,0.00021239,3.094e-05,0.0,0 STARLINK-4145,1 53137U 22083F   23280.43227606  .00003094  00000-0  21239-3 0  9995,2 53137  53.2160 183.7075 0000928  79.5177 280.5920 15.08836809 67720,6917.89,95.438,540.397,539.113,0.0
53137.0,STARLINK-4145,PAYLOAD,2023-10-07 21:30:10,15.08843181,8.13e-05,53.2153,181.6222,70.1148,289.9932,0.00031252,4.69e-05,0.0,0 STARLINK-4145,1 53137U 22083F   23280.89595148  .00004690  00000-0  31252-3 0  9993,2 53137  53.2153 181.6222 0000813  70.1148 289.9932 15.08843181 67795,6917.871,95.437,540.298,539.173,0.0
